#dP2021 12 10  0  0  0.00000000      96 __u+U ITR00 FIT  IAC
## 2187 432000.00000000   900.00000000 59558 0.0000000000000
+  125   C01C02C03C04C05C06C07C08C09C10C11C12C13C14C16C19C20
+        C21C22C23C24C25C26C27C28C29C30C32C33C34C35C36C37C38
+        C39C40C41C42C43C44C45C46C60E01E02E03E04E05E07E08E09
+        E11E12E13E14E15E18E19E21E24E25E26E27E30E31E33E36G01
+        G03G04G05G06G07G08G09G10G12G13G14G15G16G17G18G19G20
+        G21G22G23G24G25G26G27G28G29G30G31G32J01J02J03J07R01
+        R02R03R04R05R06R07R08R09R10R11R12R13R14R15R16R17R18
+        R19R20R21R22R23R24  0  0  0  0  0  0  0  0  0  0  0
++        14 12 13 14 12  9  9  9  9  0  9  8  9  8  9  7  7
++         7  7  7  7  7  7  7  7  7  7  7  7  7  7  7  8  8
++         8  8  7  7  7  7  7  8 12  4  4  4  5  4  4  4  4
++         5  5  4  5  4  4  5  4  4  4  4  4  4  4  4  5  4
++         4  4  4  4  3  3  4  3  4  3  3  4  4  4  3  4  4
++         4  4  3  4  4  4  3  4  4  3  4  4  9  8  8 15  6
++         5  6  6  6 13  6  6  6 13  7  6  7  6  6  7  5  6
++         7  7  6  7 13  6  0  0  0  0  0  0  0  0  0  0  0
%c M  cc GPS ccc cccc cccc cccc cccc ccccc ccccc ccccc ccccc
%c cc cc ccc ccc cccc cccc cccc cccc ccccc ccccc ccccc ccccc
%f  0.0000000  0.000000000  0.00000000000  0.000000000000000
%f  0.0000000  0.000000000  0.00000000000  0.000000000000000
%i    0    0    0    0      0      0      0      0         0
%i    0    0    0    0      0      0      0      0         0
/* INFORMATION & ANALYSIS CENTER (IAC)            RAPID DATA
/* S/V CLOCKS ARE ALIGNED TO GNSS TIME                      
/* G:C1WC2W R:C1PC2P E:C1XC5X C:C2IC6I J:C1CC2S             
/* PCV:IGS14_2178 OL/AL:FES2004  NONE     YN ORB:CoN CLK:CoN
*  2021 12 10  5  0  0.00000000
PC01 -34363.738329  24430.250540   -284.840523   -360.758378
PC02   4467.850151  41950.099834    487.673280    820.735532
PC03 -14797.897898  39515.340036   -381.873632    335.018600
PC04 -39660.424099  14326.792934   -619.746086    342.578386
PC05  21928.378461  36017.683148    884.073248    328.711197
PC06  -3356.453975  25147.711659  33685.849741    612.847054
PC07 -17247.244477  34561.465386 -17048.610496    139.852424
PC08  -2599.112529  39632.106622 -13934.353026    -35.433703
PC09   3466.606382  27459.412059  32242.085513   -335.861504
PC10      0.000000      0.000000      0.000000 999999.999999
PC11 -11096.800738 -18395.375540  17903.959267   -342.547274
PC12   8317.341895 -13027.363464  23277.184162   -425.373782
PC13    792.138323  40951.611597  -9225.781534   -182.735717
PC14   -555.426919 -17900.207015 -21373.852453    502.602789
PC16  -9376.040722  22349.025139  34632.848070     18.677047
PC19  10332.671871  12044.686341  22972.041604    924.617459
PC20  -7637.019181  20409.509134  17450.947171   -793.699339
PC21  22116.618746 -16969.999161  -1108.034679   -945.519972
PC22  23004.329276  -3584.375460  15365.958086   -967.691172
PC23 -16365.647641  -5041.356740  22037.285606   -963.059438
PC24   1665.908662 -27232.116629  -5958.718708   -952.931733
PC25 -11516.522755 -22304.321163  12210.667140   -812.253705
PC26  11682.982137 -16760.874475 -19036.849702    810.031622
PC27 -17285.819995   7603.891312 -20556.069656    642.784035
PC28 -26108.573369  -6638.463927  -7288.948669      7.125763
PC29  20164.910907  16279.595728 -10352.149724    485.585859
PC30   1535.681936  17166.501586 -21952.628749    488.392194
PC32 -22011.929555  17122.324119   1062.082771   -957.452036
PC33 -10340.897745 -12059.923256 -22944.337104   -962.213329
PC34  -2459.460998 -17420.409222  21651.657682   -518.135893
PC35  26396.482968   6105.967670   6752.439400     39.152923
PC36  10753.674018  22855.995707 -11828.651323   -827.626086
PC37 -12552.758328  15414.534163  19586.707102   -909.109846
PC38  -8971.591842  35018.837573 -21541.877536    195.528873
PC39 -13901.214564  20412.536551  34150.512251     34.296735
PC40 -25572.254668  30110.080912 -14938.413765    225.202967
PC41 -22865.261719   3334.307377 -15595.889075   -915.878191
PC42   8491.208161 -20578.838958 -16785.293295   -934.707202
PC43 -19612.864717 -16606.706528  10848.706924   -955.392333
PC44  17279.004947  -8128.434688  20355.166336    493.245572
PC45  16260.700589   4753.561390 -22170.014502    622.942115
PC46   -736.669530  27462.668554   4763.082193    -52.532668
PC60   7278.359969  41500.113600  -1558.332861     -0.349234
PE01  -9969.036514 -16017.223446  22815.822671   -534.797023
PE02  10083.272204  15844.490994 -22871.384556    265.850685
PE03  20590.360474  10535.061829  18457.889104   -504.768732
PE04 -29433.585923   2095.469144  -2314.068904   -917.542150
PE05   -512.657646  17218.366851  24065.609218   -227.620442
PE07  21044.771730 -13790.719210 -15591.376954   -615.986136
PE08  29426.660714  -2514.108816   1918.395698   5891.359663
PE09 -20842.712952  13863.020275  15801.035403   5435.142315
PE11  -9565.458641  13682.891109 -24445.956618   4922.482846
PE12 -21049.118091  -6121.976284 -19880.400510   4868.420727
PE13   9952.445912 -13138.010975  24595.836739    424.528980
PE14 -25653.308513  10999.940929 -15847.612844  -1669.357315
PE15  21054.486850   6192.581150  19872.632595    776.151424
PE18  21976.788736  -4804.070436   8428.653894  -1836.008192
PE19 -18404.965080 -11750.469240 -19983.788819    448.384119
PE21   3671.800715 -27363.084070  10692.437637   -704.412335
PE24 -16522.161396  22738.513592   9223.073265  -1271.592020
PE25  -3852.035956  27406.765596 -10472.144431   -556.369322
PE26  -7640.984203 -24980.582803  13937.951921   -552.219511
PE27  15950.115305 -23559.576053  -8195.324731   -183.454605
PE30  18629.575287  -4561.840393 -22557.515449    -97.488589
PE31 -18753.386491   5901.041471  22134.451012   -489.162705
PE33 -19700.809390 -21822.090919  -3430.836275   -461.612154
PE36   6950.348545  24651.713274 -14829.883935   -301.736293
PG01  17475.364794   6356.205397  18823.154206    488.137997
PG03  17980.065097  -4872.792243  18788.774251    -36.913132
PG04  26553.724822    438.424195  -1548.032850   -199.529378
PG05 -11377.408096 -10741.075306 -21610.586885    -63.891034
PG06  -3495.514416 -23355.291771  12160.916857    138.814189
PG07  11435.174303 -10534.895587 -21110.073090    288.992299
PG08  23999.171797   6757.835335  -9636.318102    -47.484772
PG09  22136.919666  -8473.948351 -12089.102293   -360.701825
PG10 -10939.676424  23672.775739   4242.383065   -265.171703
PG12 -17601.679310   1750.936412  19513.331610   -138.542847
PG13 -18089.461345 -13076.753593 -14666.512792    227.174972
PG14  12191.757176 -23239.432635   3876.892518    -52.688392
PG15 -24730.994318  -4602.749404  -9421.142819   -100.291950
PG16   7734.451760  14055.411870 -21335.786092   -437.925120
PG17  10279.883169 -13274.308130  21029.904616    545.345930
PG18 -10522.433323  11599.972143 -21440.956740    282.084751
PG19    624.157081 -14723.103665  21841.099609     90.210964
PG20  -4777.675741 -20208.531045 -16720.009336    517.715791
PG21  19671.405550  13361.609733  13096.842386    153.332730
PG22  15475.228472   3950.852141  21375.263756   -445.007567
PG23 -16753.753010  19245.543348  -7224.638333     23.545654
PG24 -19570.233864  -9529.055799  15207.830016    273.793969
PG25 -18614.549900  13440.903195  12837.245823    253.442095
PG26  -1660.779181  22992.843890 -12991.532864    163.523717
PG27  16006.500838  12334.495634 -17617.609667   -229.205014
PG28   7132.305640 -23091.507703  11797.678348    446.194195
PG29 -24787.123013   3593.105917  -8971.489529   -451.934351
PG30   4025.217976 -19681.794968 -17186.876515   -498.119056
PG31   4686.941045  23995.031049   9653.328052   -154.296326
PG32  -5256.286397  14977.179616  21389.095418    -33.032272
PJ01 -32445.706624  25736.560557  13002.583004    102.999991
PJ02 -30825.913440  26404.343084  16470.506552     -0.319836
PJ03 -25434.710823  17437.154666 -24103.414026     -8.759746
PJ07 -25407.827837  33644.671311     24.431552     -0.029894
PR01 -21504.530546   3610.667041 -13247.551263     89.269908
PR02 -20831.665217  13095.422736   6627.115186    502.796430
PR03  -7034.404971  13923.847469  20198.426588     47.887651
PR04  10299.812017   6745.966335  22362.344461    118.114185
PR05  22092.147118  -3989.693404  12143.396001     83.923142
PR06  19938.972828 -14056.721788  -7517.613324    -20.533471
PR07   6496.032043 -13780.901477 -20443.755948    -39.343621
PR08 -10396.027361  -6773.507416 -22233.362080    -62.463398
PR09   9044.636746 -17660.399417 -15972.355898     27.949197
PR10   2277.307031 -25421.854579  -1164.276094    -77.838944
PR11  -6218.026182 -19042.262102  15796.099478     49.154513
PR12 -10968.112145   -765.440165  23041.030833    285.270161
PR13  -9167.206563  16867.742871  16776.689767    -64.631759
PR14  -1822.572613  25448.166226   -175.246087     71.909352
PR15   6312.608130  18618.848069 -16232.081940     99.695130
PR16  11227.686717  -1122.256647 -22905.100773    -26.530691
PR17   4929.473922  14681.268483 -20240.200625    482.226941
PR18  17935.126320  16693.131217  -7160.969559     99.973591
PR19  21240.797603  11081.961379   8752.128672   -170.116805
PR20  11867.815286  -3462.929998  22332.172515    -60.907102
PR21  -6221.890790 -15181.063190  19549.527002   -261.037314
PR22 -18263.446980 -16592.930279   6269.189543   -150.478667
PR23 -20089.482788  -6589.916468 -14273.044895    -22.806170
PR24 -11483.141145   4589.603984 -22289.722127     70.536741
EOF
